ORBCOMM FM115           
1 41186U 15081H   24257.13351284  .00004679  00000+0  97430-3 0  9993
2 41186  46.9974 276.1229 0001424 267.5625  92.5098 14.61214774467236
ORBCOMM FM108           
1 41187U 15081J   24257.19487328  .00006702  00000+0  15120-2 0  9993
2 41187  47.0054 334.1341 0001015 120.6775 239.4210 14.56998348466461
ORBCOMM FM117           
1 41188U 15081K   24257.22973797  .00006473  00000+0  14615-2 0  9991
2 41188  47.0014 332.8255 0001884 142.7101 217.3915 14.57002515466481
ORBCOMM FM116           
1 41189U 15081L   24256.87681646  .00004479  00000+0  10230-2 0  9994
2 41189  47.0011  64.3236 0002832 221.1221 138.9451 14.57006651465199
